[
    {
        "Altitude(m)": 607886.7417265985,
        "Argument of Periapsis(deg)": 0.0,
        "Eccentricity": 0.0,
        "Inclination(deg)": 60.0,
        "Latitude(deg)": 40.99857983948772,
        "Longitude(deg)": 84.97292783384472,
        "Mean Anomaly(deg)": 49.09089999999999,
        "RAAN(deg)": 155.0,
        "Satellite Name": "Test1 685",
        "Satellite Number": 685,
        "Semi-Major Axis(m)": 6980739.136638005,
        "Time(s)": 0
    },
    {
        "Altitude(m)": 607987.6560709546,
        "Argument of Periapsis(deg)": 0.00010418945913296404,
        "Eccentricity": 0.0,
        "Inclination(deg)": 60.0,
        "Latitude(deg)": 41.46367042412325,
        "Longitude(deg)": 85.47715590528715,
        "Mean Anomaly(deg)": 49.71100614546182,
        "RAAN(deg)": 154.99957995086027,
        "Satellite Name": "Test1 685",
        "Satellite Number": 685,
        "Semi-Major Axis(m)": 6980739.136638005,
        "Time(s)": 10
    }
]